[{"OBJECT_NAME":"OBJECT A","OBJECT_ID":"2025-013A","EPOCH":"2026-03-09T23:29:31.895232","MEAN_MOTION":15.29260221,"ECCENTRICITY":0.0010321,"INCLINATION":97.6364,"RA_OF_ASC_NODE":244.5149,"ARG_OF_PERICENTER":282.3775,"MEAN_ANOMALY":77.6309,"EPHEMERIS_TYPE":0,"CLASSIFICATION_TYPE":"U","NORAD_CAT_ID":62729,"ELEMENT_SET_NO":999,"REV_AT_EPOCH":6276,"BSTAR":0.0013206527,"MEAN_MOTION_DOT":0.00037616,"MEAN_MOTION_DDOT":0},{"OBJECT_NAME":"STARLINK-36442","OBJECT_ID":"2026-005K","EPOCH":"2026-03-09T12:30:06.687072","MEAN_MOTION":15.27594216,"ECCENTRICITY":0.00010969,"INCLINATION":43.0005,"RA_OF_ASC_NODE":238.6778,"ARG_OF_PERICENTER":293.6702,"MEAN_ANOMALY":66.4034,"EPHEMERIS_TYPE":0,"CLASSIFICATION_TYPE":"U","NORAD_CAT_ID":67413,"ELEMENT_SET_NO":999,"REV_AT_EPOCH":867,"BSTAR":0.0013003564,"MEAN_MOTION_DOT":0.0003571,"MEAN_MOTION_DDOT":0}]
